1 23632U 95039A   98011.16339090 +.00000058 +00000-0 +00000-0 0 01863
2 23632 071.6680 246.2010 7019101 339.7840 350.2570 00.26372259002284
1 23632U 95039A   98011.16339090 +.00000058 +00000-0 +00000-0 0 01863
2 23632 071.6680 246.2010 7019101 339.7840 350.2570 00.26372259002284
1 23632U 95039A   98015.16339090 -.00000165 +00000-0 +00000-0 0 01878
2 23632 071.3670 246.3220 7012066 339.7300 010.0790 00.26340868002295
1 23632U 95039A   98015.16339090 -.00000165 +00000-0 +00000-0 0 01878
2 23632 071.3670 246.3220 7012066 339.7300 010.0790 00.26340868002295
1 23632U 95039A   98019.16339090 -.00000061 +00000-0 +00000-0 0 01888
2 23632 071.3810 246.3130 7012219 339.7140 029.7690 00.26359611002307
1 23632U 95039A   98019.16339090 -.00000061 +00000-0 +00000-0 0 01888
2 23632 071.3810 246.3130 7012219 339.7140 029.7690 00.26359611002307
1 23632U 95039A   98019.16339090 -.00000061 +00000-0 +00000-0 0 01888
2 23632 071.3810 246.3130 7012219 339.7140 029.7690 00.26359611002307
1 23632U 95039A   98026.16339090 +.00000621 +00000-0 +00000-0 0 01898
2 23632 071.2160 246.3340 7007061 339.9680 333.3360 00.26363918002311
1 23632U 95039A   98026.16339090 +.00000621 +00000-0 +00000-0 0 01898
2 23632 071.2160 246.3340 7007061 339.9680 333.3360 00.26363918002311
1 23632U 95039A   98029.82493960 +.00000383 +00000-0 +00000-0 0 01908
2 23632 070.9280 246.4130 7001035 339.9120 321.2350 00.26340511002311
1 23632U 95039A   98029.82493960 +.00000383 +00000-0 +00000-0 0 01908
2 23632 070.9280 246.4130 7001035 339.9120 321.2350 00.26340511002311
1 23632U 95039A   98029.82493960 +.00000383 +00000-0 +00000-0 0 01908
2 23632 070.9280 246.4130 7001035 339.9120 321.2350 00.26340511002311
1 23632U 95039A   98029.82493960 +.00000383 +00000-0 +00000-0 0 01908
2 23632 070.9280 246.4130 7001035 339.9120 321.2350 00.26340511002311
1 23632U 95039A   98033.82493960  .00000000  00000-0  00000-0 0 00009
2 23632  71.0810 246.3680 7005149 339.8630 341.2710  0.26374144  2339
1 23632U 95039A   98033.82493960 +.00000225 +00000-0 +00000-0 0 01919
2 23632 071.0810 246.3680 7005149 339.8630 341.2710 00.26374144002328
1 23632U 95039A   98033.82493960 +.00000225 +00000-0 +00000-0 0 01919
2 23632 071.0810 246.3680 7005149 339.8630 341.2710 00.26374144002328
1 23632U 95039A   98033.82493960 +.00000225 +00000-0 +00000-0 0 01919
2 23632 071.0810 246.3680 7005149 339.8630 341.2710 00.26374144002328
1 23632U 95039A   98033.82493960 +.00000225 +00000-0 +00000-0 0 01919
2 23632 071.0810 246.3680 7005149 339.8630 341.2710 00.26374144002328
1 23632U 95039A   98033.82493960 +.00000225 +00000-0 +00000-0 0 01919
2 23632 071.0810 246.3680 7005149 339.8630 341.2710 00.26374144002328
1 23632U 95039A   98033.82493960 +.00000225 +00000-0 +00000-0 0 01919
2 23632 071.0810 246.3680 7005149 339.8630 341.2710 00.26374144002328
1 23632U 95039A   98033.82493960 +.00000225 +00000-0 +00000-0 0 01919
2 23632 071.0810 246.3680 7005149 339.8630 341.2710 00.26374144002328
1 23632U 95039A   98033.82493960 +.00000225 +00000-0 +00000-0 0 01919
2 23632 071.0810 246.3680 7005149 339.8630 341.2710 00.26374144002328
1 23632U 95039A   98056.56951400  .00000000  00000-0  00000-0 0 00003
2 23632  70.7330 246.3480 6983236 340.4140 338.5560  0.26339828  2393
1 23632U 95039A   98056.56951400 +.00000390 +00000-0 +00000-0 0 01927
2 23632 070.7330 246.3480 6983236 340.4140 338.5560 00.26339828002382
1 23632U 95039A   98056.56951400 +.00000390 +00000-0 +00000-0 0 01927
2 23632 070.7330 246.3480 6983236 340.4140 338.5560 00.26339828002382
1 23632U 95039A   98083.36174971 -.00000208  00000-0  00000+0 0  1978
2 23632  71.7915 245.8371 6993636 341.6519 359.2013  0.26366737  2442
1 23632U 95039A   98094.27619190 -.00000719 +00000-0 +00000-0 0 02011
2 23632 071.6470 245.8330 6980644 341.6840 315.9040 00.26369250002457
1 23632U 95039A   98098.27619190 -.00001166 +00000-0 +00000-0 0 02023
2 23632 071.7530 245.8000 6982919 341.6620 335.9540 00.26370748002464
1 23632U 95039A   98098.27619190 -.00001166 +00000-0 +00000-0 0 02023
2 23632 071.7530 245.8000 6982919 341.6620 335.9540 00.26370748002464
1 23632U 95039A   98098.27619190 -.00001166 +00000-0 +00000-0 0 02023
2 23632 071.7530 245.8000 6982919 341.6620 335.9540 00.26370748002464
1 23632U 95039A   98098.27619190 -.00001166 +00000-0 +00000-0 0 02023
2 23632 071.7530 245.8000 6982919 341.6620 335.9540 00.26370748002464
1 23632U 95039A   98098.27619190 -.00001166 +00000-0 +00000-0 0 02023
2 23632 071.7530 245.8000 6982919 341.6620 335.9540 00.26370748002464
1 23632U 95039A   98098.27619190 -.00001166 +00000-0 +00000-0 0 02023
2 23632 071.7530 245.8000 6982919 341.6620 335.9540 00.26370748002464
1 23632U 95039A   98110.27619190  .00000000  00000-0  00000-0 0 00009
2 23632  72.1250 245.6140 6989507 342.1880  34.2180  0.26384275  2497
1 23632U 95039A   98098.27619190 -.00001166 +00000-0 +00000-0 0 02023
2 23632 071.7530 245.8000 6982919 341.6620 335.9540 00.26370748002464
1 23632U 95039A   98114.21114420 -.00001348 +00000-0 +00000-0 0 02035
2 23632 072.0970 245.6140 6990219 342.2150 047.6590 00.26359448002507
1 23632U 95039A   98114.21114420 -.00001348 +00000-0 +00000-0 0 02035
2 23632 072.0970 245.6140 6990219 342.2150 047.6590 00.26359448002507
1 23632U 95039A   98114.21114420 -.00001348 +00000-0 +00000-0 0 02035
2 23632 072.0970 245.6140 6990219 342.2150 047.6590 00.26359448002507
1 23632U 95039A   98114.21114420 -.00001348 +00000-0 +00000-0 0 02035
2 23632 072.0970 245.6140 6990219 342.2150 047.6590 00.26359448002507
1 23632U 95039A   98114.21114420 -.00001348 +00000-0 +00000-0 0 02035
2 23632 072.0970 245.6140 6990219 342.2150 047.6590 00.26359448002507
1 23632U 95039A   98114.21114420 -.00001348 +00000-0 +00000-0 0 02035
2 23632 072.0970 245.6140 6990219 342.2150 047.6590 00.26359448002507
1 23632U 95039A   98125.21114420 -.00001643 +00000-0 +00000-0 0 02046
2 23632 072.2990 245.5100 6993628 343.0230 010.2080 00.26356854002521
1 23632U 95039A   98125.21114420 -.00001643 +00000-0 +00000-0 0 02046
2 23632 072.2990 245.5100 6993628 343.0230 010.2080 00.26356854002521
1 23632U 95039A   98125.21114420 -.00001643 +00000-0 +00000-0 0 02046
2 23632 072.2990 245.5100 6993628 343.0230 010.2080 00.26356854002521
1 23632U 95039A   98132.21114420 -.00001265 +00000-0 +00000-0 0 02055
2 23632 072.6180 245.3870 7001534 343.4100 313.5500 00.26382420002530
1 23632U 95039A   98132.21114420 -.00001265 +00000-0 +00000-0 0 02055
2 23632 072.6180 245.3870 7001534 343.4100 313.5500 00.26382420002530
1 23632U 95039A   98136.04450850 -.00001015 +00000-0 +00000-0 0 02064
2 23632 072.5500 245.3960 7002091 343.6570 317.1400 00.26377255002547
1 23632U 95039A   98136.04450850 -.00001015 +00000-0 +00000-0 0 02064
2 23632 072.5500 245.3960 7002091 343.6570 317.1400 00.26377255002547
1 23632U 95039A   98140.04450850 -.00001345 +00000-0 +00000-0 0 02076
2 23632 072.4070 245.4400 7002553 343.7400 336.6640 00.26358255002556
1 23632U 95039A   98140.04450850 -.00001345 +00000-0 +00000-0 0 02076
2 23632 072.4070 245.4400 7002553 343.7400 336.6640 00.26358255002556
1 23632U 95039A   98144.04450850 -.00001360 +00000-0 +00000-0 0 02088
2 23632 072.7140 245.3640 7012131 343.8770 356.3160 00.26400739002568
1 23632U 95039A   98144.04450850 -.00001360 +00000-0 +00000-0 0 02088
2 23632 072.7140 245.3640 7012131 343.8770 356.3160 00.26400739002568
1 23632U 95039A   98144.04450850 -.00001360 +00000-0 +00000-0 0 02088
2 23632 072.7140 245.3640 7012131 343.8770 356.3160 00.26400739002568
1 23632U 95039A   98148.04450850 -.00001158 +00000-0 +00000-0 0 02098
2 23632 072.5230 245.3340 7011335 344.5900 013.7520 00.26375316002578
1 23632U 95039A   98148.04450850 -.00001158 +00000-0 +00000-0 0 02098
2 23632 072.5230 245.3340 7011335 344.5900 013.7520 00.26375316002578
1 23632U 95039A   98148.04450850 -.00001158 +00000-0 +00000-0 0 02098
2 23632 072.5230 245.3340 7011335 344.5900 013.7520 00.26375316002578
1 23632U 95039A   98148.04450850 -.00001158 +00000-0 +00000-0 0 02098
2 23632 072.5230 245.3340 7011335 344.5900 013.7520 00.26375316002578
1 23632U 95039A   98148.04450850 -.00001158 +00000-0 +00000-0 0 02098
2 23632 072.5230 245.3340 7011335 344.5900 013.7520 00.26375316002578
1 23632U 95039A   98155.04146460  .00000000  00000-0  00000-0 0 00008
2 23632  72.4060 245.3940 7012913 344.7370 317.3300  0.26366465  2585
1 23632U 95039A   98159.04146460 -.00001026 +00000-0 +00000-0 0 02116
2 23632 072.4590 245.3640 7017179 344.9760 336.2220 00.26380840002599
1 23632U 95039A   98159.04146460 -.00001026 +00000-0 +00000-0 0 02116
2 23632 072.4590 245.3640 7017179 344.9760 336.2220 00.26380840002599
1 23632U 95039A   98163.04146460 -.00000639 +00000-0 +00000-0 0 02121
2 23632 072.3110 245.3840 7018440 345.2120 355.0660 00.26369631002608
1 23632U 95039A   98163.04146460 -.00000639 +00000-0 +00000-0 0 02121
2 23632 072.3110 245.3840 7018440 345.2120 355.0660 00.26369631002608
1 23632U 95039A   98163.04146460 -.00000639 +00000-0 +00000-0 0 02132
2 23632 072.3110 245.3840 7018440 345.2120 355.0660 00.26369631002608
1 23632U 95039A   98166.89583333 +.00000000 +00000-0 +00000-0 0 02144
2 23632 072.0408 245.4858 7016980 345.2657 000.5441 00.26354470002612
1 23632U 95039A   98171.04146460 +.00000000 +00000-0 +00000-0 0 02165
2 23632 072.1520 245.4470 7022835 345.3200 034.0330 00.26369103002617
1 23632U 95039A   98171.04146460 +.00000000 +00000-0 +00000-0 0 02165
2 23632 072.1520 245.4470 7022835 345.3200 034.0330 00.26369103002617
1 23632U 95039A   98174.04146460 +.00000000 +00000-0 +00000-0 0 02179
2 23632 072.2150 245.3520 7032625 345.9870 316.6240 00.26393164002612
1 23632U 95039A   98174.04146460 +.00000000 +00000-0 +00000-0 0 02179
2 23632 072.2150 245.3520 7032625 345.9870 316.6240 00.26393164002612
1 23632U 95039A   98174.04146460 +.00000000 +00000-0 +00000-0 0 02179
2 23632 072.2150 245.3520 7032625 345.9870 316.6240 00.26393164002612
1 23632U 95039A   98174.04146460 +.00000000 +00000-0 +00000-0 0 02179
2 23632 072.2150 245.3520 7032625 345.9870 316.6240 00.26393164002612
